{"type":"FeatureCollection","attribution":"Boundaries © OpenStreetMap contributors (ODbL), simplified via Nominatim","features":[{"type":"Feature","geometry":{"type":"Polygon","coordinates":[[[100.4876,13.7525],[100.4919,13.7424],[100.4999,13.7387],[100.5092,13.7639],[100.4992,13.7729],[100.4892,13.7599],[100.4876,13.7525]]]},"properties":{"id":"พระนคร","name":"พระนคร","name_en":"Phra Nakhon","province":"กรุงเทพมหานคร","lat":13.75262,"lon":100.49336}},{"type":"Feature","geometry":{"type":"Polygon","coordinates":[[[100.4992,13.7729],[100.519,13.7527],[100.5374,13.7979],[100.5165,13.8005],[100.503,13.7823],[100.4992,13.7729]]]},"properties":{"id":"ดุสิต","name":"ดุสิต","name_en":"Dusit","province":"กรุงเทพมหานคร","lat":13.77055,"lon":100.51261}},{"type":"Feature","geometry":{"type":"Polygon","coordinates":[[[100.7873,13.8799],[100.8018,13.8425],[100.8064,13.8444],[100.808,13.8373],[100.8059,13.8261],[100.8039,13.8259],[100.8009,13.8174],[100.8017,13.8095],[100.8077,13.808],[100.7967,13.7969],[100.7936,13.7842],[100.8015,13.7816],[100.8147,13.7843],[100.823,13.7797],[100.8323,13.7675],[100.8374,13.7675],[100.8422,13.7709],[100.8607,13.7704],[100.8645,13.7654],[100.8676,13.7507],[100.8748,13.7392],[100.8789,13.7378],[100.9099,13.7905],[100.9283,13.8012],[100.9386,13.8143],[100.9077,13.8382],[100.9127,13.8468],[100.9052,13.8482],[100.9065,13.8809],[100.9141,13.9462],[100.7925,13.9316],[100.7923,13.8939],[100.7959,13.8906],[100.791,13.882],[100.7873,13.8799]]]},"properties":{"id":"หนองจอก","name":"หนองจอก","name_en":"Nong Chok","province":"กรุงเทพมหานคร","lat":13.85631,"lon":100.86308}},{"type":"Feature","geometry":{"type":"Polygon","coordinates":[[[100.5121,13.7193],[100.5173,13.7181],[100.5445,13.726],[100.5158,13.7378],[100.5154,13.7321],[100.5124,13.7289],[100.5121,13.7193]]]},"properties":{"id":"บางรัก","name":"บางรัก","name_en":"Bang Rak","province":"กรุงเทพมหานคร","lat":13.72395,"lon":100.51596}},{"type":"Feature","geometry":{"type":"Polygon","coordinates":[[[100.5865,13.8589],[100.5899,13.8438],[100.6067,13.8492],[100.6135,13.8492],[100.633,13.8425],[100.641,13.8467],[100.6587,13.8478],[100.6583,13.8523],[100.6612,13.8526],[100.6632,13.8561],[100.6648,13.8546],[100.6803,13.8586],[100.6857,13.8697],[100.6812,13.8797],[100.6648,13.8811],[100.6614,13.8789],[100.6568,13.8809],[100.6531,13.8864],[100.6527,13.8829],[100.6442,13.8827],[100.6403,13.8867],[100.6239,13.8829],[100.6113,13.8866],[100.6088,13.8884],[100.6113,13.8925],[100.6087,13.8956],[100.6112,13.8997],[100.5887,13.8806],[100.5865,13.8589]]]},"properties":{"id":"บางเขน","name":"บางเขน","name_en":"Bang Khen","province":"กรุงเทพมหานคร","lat":13.87559,"lon":100.59693}},{"type":"Feature","geometry":{"type":"Polygon","coordinates":[[[100.601,13.7482],[100.6105,13.7438],[100.6358,13.7501],[100.6454,13.7466],[100.6488,13.7417],[100.6592,13.7383],[100.6635,13.7401],[100.6664,13.7469],[100.6774,13.749],[100.679,13.7521],[100.6697,13.7564],[100.6688,13.7666],[100.6647,13.7754],[100.6562,13.7707],[100.6481,13.7848],[100.6427,13.7871],[100.6393,13.804],[100.6341,13.8094],[100.6314,13.8192],[100.6285,13.8194],[100.6236,13.8162],[100.6149,13.7996],[100.6237,13.8002],[100.6259,13.7881],[100.6291,13.7887],[100.6306,13.7839],[100.6282,13.7757],[100.6305,13.7632],[100.6145,13.7609],[100.601,13.7482]]]},"properties":{"id":"บางกะปิ","name":"บางกะปิ","name_en":"Bang Kapi","province":"กรุงเทพมหานคร","lat":13.764,"lon":100.64481}},{"type":"Feature","geometry":{"type":"Polygon","coordinates":[[[100.5173,13.7532],[100.5159,13.7377],[100.553,13.7225],[100.5501,13.7484],[100.5254,13.7493],[100.5173,13.7532]]]},"properties":{"id":"ปทุมวัน","name":"ปทุมวัน","name_en":"Pathum Wan","province":"กรุงเทพมหานคร","lat":13.74615,"lon":100.53102}},{"type":"Feature","geometry":{"type":"Polygon","coordinates":[[[100.5039,13.7469],[100.5155,13.7381],[100.5173,13.7548],[100.5092,13.7639],[100.5039,13.7469]]]},"properties":{"id":"ป้อมปราบศัตรูพ่าย","name":"ป้อมปราบศัตรูพ่าย","name_en":"Pom Prap Sattru Phai","province":"กรุงเทพมหานคร","lat":13.744,"lon":100.51479}},{"type":"Feature","geometry":{"type":"Polygon","coordinates":[[[100.5845,13.6958],[100.5885,13.69],[100.5888,13.6832],[100.6002,13.6799],[100.6106,13.6843],[100.6228,13.6844],[100.6246,13.6784],[100.6402,13.6779],[100.6372,13.6949],[100.633,13.703],[100.6163,13.7041],[100.6159,13.7069],[100.6057,13.7065],[100.5845,13.6958]]]},"properties":{"id":"พระโขนง","name":"พระโขนง","name_en":"Phra Khanong","province":"กรุงเทพมหานคร","lat":13.70236,"lon":100.60155}},{"type":"Feature","geometry":{"type":"Polygon","coordinates":[[[100.6967,13.8154],[100.702,13.8089],[100.7005,13.8046],[100.7061,13.7983],[100.7164,13.7781],[100.7337,13.7748],[100.7389,13.7774],[100.739,13.7728],[100.7464,13.7732],[100.7465,13.7779],[100.7598,13.7755],[100.7649,13.7817],[100.7767,13.7832],[100.786,13.7816],[100.7811,13.798],[100.7885,13.8004],[100.795,13.794],[100.8077,13.808],[100.8017,13.8095],[100.8009,13.8174],[100.8039,13.8259],[100.8059,13.8261],[100.8077,13.8394],[100.8064,13.8444],[100.8018,13.8425],[100.7991,13.8493],[100.7493,13.8221],[100.7447,13.8335],[100.7375,13.8322],[100.7364,13.835],[100.7297,13.8327],[100.7297,13.8277],[100.7223,13.8275],[100.7223,13.8375],[100.7203,13.8373],[100.7203,13.8315],[100.7146,13.8314],[100.7154,13.8219],[100.7058,13.8211],[100.6967,13.8154]]]},"properties":{"id":"มีนบุรี","name":"มีนบุรี","name_en":"Min Buri","province":"กรุงเทพมหานคร","lat":13.81106,"lon":100.75023}},{"type":"Feature","geometry":{"type":"Polygon","coordinates":[[[100.7066,13.7567],[100.7098,13.7565],[100.7083,13.7314],[100.71,13.7164],[100.7304,13.7185],[100.7307,13.7168],[100.7667,13.7154],[100.7884,13.7166],[100.8593,13.6894],[100.8608,13.697],[100.8552,13.6994],[100.8789,13.7378],[100.8748,13.7392],[100.8676,13.7507],[100.8645,13.7654],[100.8607,13.7704],[100.8422,13.7709],[100.8374,13.7675],[100.8322,13.7675],[100.823,13.7797],[100.8147,13.7843],[100.8087,13.7816],[100.7938,13.7839],[100.7963,13.7914],[100.7885,13.8004],[100.7811,13.798],[100.786,13.7816],[100.7767,13.7832],[100.7649,13.7817],[100.7595,13.7754],[100.7548,13.7779],[100.7465,13.7779],[100.7464,13.7732],[100.739,13.7728],[100.7389,13.7774],[100.7337,13.7748],[100.7164,13.7781],[100.716,13.7715],[100.7066,13.7567]]]},"properties":{"id":"ลาดกระบัง","name":"ลาดกระบัง","name_en":"Lat Krabang","province":"กรุงเทพมหานคร","lat":13.72235,"lon":100.75286}},{"type":"Feature","geometry":{"type":"Polygon","coordinates":[[[100.517,13.6828],[100.5335,13.6703],[100.5399,13.6692],[100.5467,13.6717],[100.5523,13.6841],[100.5515,13.7006],[100.555,13.7056],[100.5525,13.7181],[100.549,13.7193],[100.5418,13.7107],[100.5437,13.707],[100.5392,13.7044],[100.5377,13.7071],[100.5286,13.7059],[100.5311,13.6999],[100.517,13.6828]]]},"properties":{"id":"ยานนาวา","name":"ยานนาวา","name_en":"Yan Nawa","province":"กรุงเทพมหานคร","lat":13.67972,"lon":100.54353}},{"type":"Feature","geometry":{"type":"Polygon","coordinates":[[[100.4999,13.7387],[100.5092,13.7354],[100.5124,13.7289],[100.5152,13.7316],[100.5158,13.738],[100.5043,13.7467],[100.4999,13.7387]]]},"properties":{"id":"สัมพันธวงศ์","name":"สัมพันธวงศ์","name_en":"Samphanthawong","province":"กรุงเทพมหานคร","lat":13.73784,"lon":100.51036}},{"type":"Feature","geometry":{"type":"Polygon","coordinates":[[[100.5278,13.7743],[100.5434,13.7627],[100.5483,13.7635],[100.5614,13.7875],[100.5615,13.795],[100.5374,13.7979],[100.5278,13.7743]]]},"properties":{"id":"พญาไท","name":"พญาไท","name_en":"Phaya Thai","province":"กรุงเทพมหานคร","lat":13.77975,"lon":100.54244}},{"type":"Feature","geometry":{"type":"Polygon","coordinates":[[[100.4677,13.7118],[100.4764,13.7112],[100.481,13.6959],[100.4899,13.6953],[100.4922,13.7009],[100.4985,13.7052],[100.4932,13.7128],[100.4921,13.7232],[100.4977,13.7393],[100.492,13.7423],[100.4846,13.7249],[100.4717,13.7225],[100.4677,13.7118]]]},"properties":{"id":"ธนบุรี","name":"ธนบุรี","name_en":"Thon Buri","province":"กรุงเทพมหานคร","lat":13.72636,"lon":100.48913}},{"type":"Feature","geometry":{"type":"Polygon","coordinates":[[[100.4616,13.7393],[100.4671,13.7254],[100.4759,13.7222],[100.4846,13.7249],[100.492,13.7423],[100.4882,13.7481],[100.4782,13.7462],[100.4771,13.7438],[100.462,13.7443],[100.4616,13.7393]]]},"properties":{"id":"บางกอกใหญ่","name":"บางกอกใหญ่","name_en":"Bangkok Yai","province":"กรุงเทพมหานคร","lat":13.73939,"lon":100.48543}},{"type":"Feature","geometry":{"type":"Polygon","coordinates":[[[100.5633,13.7479],[100.5981,13.7411],[100.6041,13.7512],[100.5947,13.7628],[100.5884,13.803],[100.5749,13.8011],[100.5734,13.7709],[100.5661,13.7601],[100.5633,13.7479]]]},"properties":{"id":"ห้วยขวาง","name":"ห้วยขวาง","name_en":"Huai Khwang","province":"กรุงเทพมหานคร","lat":13.77858,"lon":100.5746}},{"type":"Feature","geometry":{"type":"Polygon","coordinates":[[[100.4921,13.7232],[100.4932,13.7128],[100.4985,13.7052],[100.5061,13.7101],[100.5114,13.7175],[100.5128,13.7258],[100.511,13.7331],[100.5081,13.7362],[100.4977,13.7393],[100.4921,13.7232]]]},"properties":{"id":"คลองสาน","name":"คลองสาน","name_en":"Khlong San","province":"กรุงเทพมหานคร","lat":13.73008,"lon":100.5086}},{"type":"Feature","geometry":{"type":"Polygon","coordinates":[[[100.4062,13.7498],[100.4354,13.74],[100.4499,13.7405],[100.4621,13.7445],[100.4618,13.752],[100.4541,13.763],[100.4536,13.7687],[100.4574,13.7771],[100.4678,13.7798],[100.4663,13.7883],[100.4699,13.7947],[100.4589,13.7983],[100.411,13.8013],[100.4062,13.7498]]]},"properties":{"id":"ตลิ่งชัน","name":"ตลิ่งชัน","name_en":"Taling Chan","province":"กรุงเทพมหานคร","lat":13.7777,"lon":100.45707}},{"type":"Feature","geometry":{"type":"Polygon","coordinates":[[[100.4534,13.7667],[100.4618,13.752],[100.462,13.7443],[100.4771,13.7438],[100.4782,13.7462],[100.4882,13.7481],[100.488,13.7571],[100.4911,13.7619],[100.4687,13.7876],[100.4662,13.7873],[100.4678,13.7798],[100.4574,13.7771],[100.4534,13.7667]]]},"properties":{"id":"บางกอกน้อย","name":"บางกอกน้อย","name_en":"Bangkok Noi","province":"กรุงเทพมหานคร","lat":13.76149,"lon":100.4782}},{"type":"Feature","geometry":{"type":"Polygon","coordinates":[[[100.3766,13.6183],[100.3785,13.5943],[100.3843,13.5896],[100.385,13.5791],[100.3915,13.5689],[100.3946,13.5549],[100.4013,13.5528],[100.4152,13.5571],[100.4146,13.5515],[100.4201,13.5454],[100.4185,13.5408],[100.4125,13.5358],[100.411,13.523],[100.4068,13.5193],[100.4066,13.5086],[100.4048,13.5081],[100.4086,13.4907],[100.4543,13.4977],[100.4444,13.5537],[100.4463,13.5851],[100.4537,13.606],[100.4576,13.6044],[100.464,13.6058],[100.4697,13.5927],[100.4736,13.5939],[100.4732,13.5993],[100.4808,13.6095],[100.4815,13.6158],[100.4721,13.6242],[100.4757,13.6305],[100.4701,13.6601],[100.4547,13.6605],[100.453,13.6633],[100.4555,13.6672],[100.4529,13.6756],[100.4488,13.6754],[100.4487,13.6816],[100.4469,13.6826],[100.3766,13.6183]]]},"properties":{"id":"บางขุนเทียน","name":"บางขุนเทียน","name_en":"Bang Khun Thian","province":"กรุงเทพมหานคร","lat":13.65677,"lon":100.43008}},{"type":"Feature","geometry":{"type":"Polygon","coordinates":[[[100.4133,13.7479],[100.4147,13.7357],[100.4175,13.7353],[100.4184,13.7313],[100.4248,13.7322],[100.4278,13.6876],[100.4377,13.6937],[100.4346,13.6988],[100.4391,13.7094],[100.4498,13.7054],[100.4528,13.7101],[100.4559,13.7084],[100.4553,13.7118],[100.4637,13.713],[100.4627,13.7179],[100.4692,13.7159],[100.4717,13.7225],[100.4629,13.7323],[100.4621,13.7445],[100.4499,13.7405],[100.4354,13.74],[100.4133,13.7479]]]},"properties":{"id":"ภาษีเจริญ","name":"ภาษีเจริญ","name_en":"Phasi Charoen","province":"กรุงเทพมหานคร","lat":13.7166,"lon":100.44871}},{"type":"Feature","geometry":{"type":"Polygon","coordinates":[[[100.3313,13.6973],[100.3336,13.6815],[100.3376,13.6774],[100.3413,13.6609],[100.3394,13.655],[100.3487,13.6548],[100.3571,13.6616],[100.3609,13.6613],[100.3848,13.6714],[100.3813,13.6918],[100.3594,13.738],[100.3375,13.7361],[100.3376,13.7327],[100.335,13.7321],[100.3364,13.7229],[100.3329,13.7211],[100.3388,13.7128],[100.3365,13.7108],[100.3323,13.7125],[100.3313,13.6973]]]},"properties":{"id":"หนองแขม","name":"หนองแขม","name_en":"Nong Khaem","province":"กรุงเทพมหานคร","lat":13.67832,"lon":100.34538}},{"type":"Feature","geometry":{"type":"Polygon","coordinates":[[[100.4793,13.6603],[100.4823,13.6612],[100.4914,13.6565],[100.4923,13.6582],[100.4996,13.654],[100.5047,13.659],[100.504,13.6615],[100.5065,13.6599],[100.5086,13.6633],[100.5175,13.6613],[100.5176,13.6673],[100.5211,13.6691],[100.5204,13.6756],[100.5228,13.6782],[100.5144,13.6843],[100.4977,13.6877],[100.4921,13.691],[100.4899,13.6953],[100.4824,13.6949],[100.4815,13.6906],[100.489,13.6847],[100.4886,13.6796],[100.4801,13.6692],[100.4821,13.6647],[100.4799,13.6643],[100.4793,13.6603]]]},"properties":{"id":"ราษฎร์บูรณะ","name":"ราษฎร์บูรณะ","name_en":"Rat Burana","province":"กรุงเทพมหานคร","lat":13.68209,"lon":100.50551}},{"type":"Feature","geometry":{"type":"Polygon","coordinates":[[[100.4662,13.7874],[100.4691,13.7873],[100.4911,13.7619],[100.4972,13.769],[100.5053,13.7858],[100.5152,13.7975],[100.5175,13.8047],[100.5166,13.8114],[100.515,13.8132],[100.5001,13.8003],[100.4662,13.7874]]]},"properties":{"id":"บางพลัด","name":"บางพลัด","name_en":"Bang Phlat","province":"กรุงเทพมหานคร","lat":13.79069,"lon":100.50361}},{"type":"Feature","geometry":{"type":"Polygon","coordinates":[[[100.5434,13.7627],[100.5524,13.7561],[100.5649,13.7551],[100.5734,13.7709],[100.5749,13.8011],[100.5674,13.7993],[100.5666,13.7947],[100.5615,13.795],[100.5614,13.7875],[100.5483,13.7635],[100.5434,13.7627]]]},"properties":{"id":"ดินแดง","name":"ดินแดง","name_en":"Din Daeng","province":"กรุงเทพมหานคร","lat":13.76035,"lon":100.55508}},{"type":"Feature","geometry":{"type":"Polygon","coordinates":[[[100.6244,13.8173],[100.6314,13.8192],[100.6341,13.8094],[100.6393,13.804],[100.6427,13.7871],[100.6481,13.7848],[100.6562,13.7707],[100.6752,13.7812],[100.6738,13.7838],[100.6766,13.7867],[100.6736,13.7962],[100.6687,13.8056],[100.6667,13.8051],[100.6629,13.8101],[100.6601,13.8242],[100.6614,13.8334],[100.6579,13.8329],[100.6573,13.8356],[100.6486,13.8339],[100.6478,13.844],[100.6501,13.8451],[100.646,13.8473],[100.6372,13.8446],[100.6244,13.8173]]]},"properties":{"id":"บึงกุ่ม","name":"บึงกุ่ม","name_en":"Bueng Kum","province":"กรุงเทพมหานคร","lat":13.78536,"lon":100.66863}},{"type":"Feature","geometry":{"type":"Polygon","coordinates":[[[100.5082,13.7123],[100.5169,13.7097],[100.5146,13.7049],[100.5269,13.7011],[100.5299,13.7026],[100.5286,13.7059],[100.5377,13.7071],[100.5392,13.7044],[100.5437,13.707],[100.5418,13.7107],[100.549,13.7193],[100.5536,13.7165],[100.553,13.7225],[100.5445,13.726],[100.5173,13.7181],[100.5121,13.7193],[100.5082,13.7123]]]},"properties":{"id":"สาทร","name":"สาทร","name_en":"Sathon","province":"กรุงเทพมหานคร","lat":13.72136,"lon":100.53051}},{"type":"Feature","geometry":{"type":"Polygon","coordinates":[[[100.5063,13.8191],[100.5072,13.8162],[100.5166,13.8114],[100.5165,13.8005],[100.5374,13.7978],[100.5451,13.8177],[100.5429,13.8209],[100.5371,13.8217],[100.5437,13.8497],[100.5362,13.8462],[100.5131,13.8247],[100.5094,13.8256],[100.5063,13.8191]]]},"properties":{"id":"บางซื่อ","name":"บางซื่อ","name_en":"Bang Sue","province":"กรุงเทพมหานคร","lat":13.80971,"lon":100.53744}},{"type":"Feature","geometry":{"type":"Polygon","coordinates":[[[100.5371,13.8217],[100.5429,13.8209],[100.5451,13.8177],[100.5374,13.7978],[100.5663,13.7946],[100.5674,13.7993],[100.5884,13.803],[100.5911,13.8376],[100.5865,13.8589],[100.5437,13.8498],[100.5371,13.8217]]]},"properties":{"id":"จตุจักร","name":"จตุจักร","name_en":"Chatuchak","province":"กรุงเทพมหานคร","lat":13.80304,"lon":100.55023}},{"type":"Feature","geometry":{"type":"Polygon","coordinates":[[[100.4898,13.6958],[100.4921,13.691],[100.4977,13.6877],[100.517,13.6828],[100.5311,13.6999],[100.53,13.7026],[100.5249,13.7009],[100.5146,13.7049],[100.5169,13.7097],[100.5082,13.7123],[100.4926,13.7014],[100.4898,13.6958]]]},"properties":{"id":"บางคอแหลม","name":"บางคอแหลม","name_en":"Bang Kho Laem","province":"กรุงเทพมหานคร","lat":13.69563,"lon":100.50145}},{"type":"Feature","geometry":{"type":"Polygon","coordinates":[[[100.6341,13.7007],[100.6372,13.6949],[100.6406,13.6763],[100.6454,13.6695],[100.6538,13.669],[100.6554,13.6723],[100.6599,13.6702],[100.6612,13.6717],[100.6784,13.6614],[100.6983,13.6562],[100.7124,13.7013],[100.7084,13.7325],[100.6591,13.7379],[100.6497,13.7288],[100.6479,13.7173],[100.6516,13.7183],[100.6492,13.7074],[100.651,13.7029],[100.6341,13.7007]]]},"properties":{"id":"ประเวศ","name":"ประเวศ","name_en":"Prawet","province":"กรุงเทพมหานคร","lat":13.72136,"lon":100.69781}},{"type":"Feature","geometry":{"type":"Polygon","coordinates":[[[100.5507,13.7428],[100.555,13.7056],[100.5624,13.706],[100.5845,13.6958],[100.6017,13.7047],[100.5987,13.7101],[100.5507,13.7428]]]},"properties":{"id":"คลองเตย","name":"คลองเตย","name_en":"Khlong Toei","province":"กรุงเทพมหานคร","lat":13.71873,"lon":100.56017}},{"type":"Feature","geometry":{"type":"Polygon","coordinates":[[[100.6012,13.7481],[100.5984,13.7383],[100.6049,13.7377],[100.6067,13.716],[100.6019,13.712],[100.6064,13.7053],[100.6159,13.7069],[100.6163,13.7041],[100.6224,13.7051],[100.6233,13.7031],[100.633,13.703],[100.6341,13.7007],[100.651,13.7029],[100.6492,13.7074],[100.6516,13.7183],[100.6479,13.7173],[100.6497,13.7288],[100.6592,13.7383],[100.6488,13.7417],[100.6454,13.7466],[100.6358,13.7501],[100.6105,13.7438],[100.6012,13.7481]]]},"properties":{"id":"สวนหลวง","name":"สวนหลวง","name_en":"Suan Luang","province":"กรุงเทพมหานคร","lat":13.71947,"lon":100.61295}},{"type":"Feature","geometry":{"type":"Polygon","coordinates":[[[100.4346,13.6988],[100.4487,13.6816],[100.4488,13.6754],[100.4529,13.6756],[100.4555,13.6672],[100.453,13.6633],[100.4547,13.6605],[100.4668,13.6591],[100.4821,13.6647],[100.4801,13.6692],[100.4885,13.6794],[100.489,13.6847],[100.4816,13.6903],[100.4826,13.6952],[100.4795,13.6982],[100.4764,13.7112],[100.4679,13.7116],[100.4692,13.7159],[100.4627,13.7179],[100.4637,13.713],[100.4553,13.7118],[100.4559,13.7084],[100.4528,13.7101],[100.4498,13.7054],[100.4391,13.7094],[100.4346,13.6988]]]},"properties":{"id":"จอมทอง","name":"จอมทอง","name_en":"Chom Thong","province":"กรุงเทพมหานคร","lat":13.6991,"lon":100.46662}},{"type":"Feature","geometry":{"type":"Polygon","coordinates":[[[100.5589,13.9145],[100.5876,13.8993],[100.5829,13.8907],[100.5948,13.8875],[100.6112,13.8997],[100.6266,13.9259],[100.6226,13.9502],[100.6128,13.9552],[100.6073,13.955],[100.6044,13.9534],[100.6057,13.9441],[100.59,13.9509],[100.574,13.9546],[100.5676,13.9514],[100.5589,13.9145]]]},"properties":{"id":"ดอนเมือง","name":"ดอนเมือง","name_en":"Don Mueang","province":"กรุงเทพมหานคร","lat":13.92265,"lon":100.601}},{"type":"Feature","geometry":{"type":"Polygon","coordinates":[[[100.519,13.7527],[100.5254,13.7493],[100.5633,13.7479],[100.5649,13.7551],[100.5524,13.7561],[100.5278,13.7743],[100.519,13.7527]]]},"properties":{"id":"ราชเทวี","name":"ราชเทวี","name_en":"Ratchathewi","province":"กรุงเทพมหานคร","lat":13.75322,"lon":100.53186}},{"type":"Feature","geometry":{"type":"Polygon","coordinates":[[[100.5884,13.8029],[100.5964,13.8013],[100.5996,13.7961],[100.6129,13.7949],[100.6372,13.8446],[100.6287,13.8427],[100.6198,13.8484],[100.6071,13.8493],[100.5899,13.8438],[100.5884,13.8029]]]},"properties":{"id":"ลาดพร้าว","name":"ลาดพร้าว","name_en":"Lat Phrao","province":"กรุงเทพมหานคร","lat":13.80368,"lon":100.59087}},{"type":"Feature","geometry":{"type":"Polygon","coordinates":[[[100.5501,13.7484],[100.5507,13.7428],[100.5987,13.7101],[100.6017,13.7047],[100.6057,13.7065],[100.6019,13.712],[100.6067,13.716],[100.6049,13.7377],[100.5984,13.7383],[100.5981,13.7411],[100.5723,13.7463],[100.5501,13.7484]]]},"properties":{"id":"วัฒนา","name":"วัฒนา","name_en":"Vadhana","province":"กรุงเทพมหานคร","lat":13.74279,"lon":100.5605}},{"type":"Feature","geometry":{"type":"Polygon","coordinates":[[[100.3526,13.7522],[100.3813,13.6918],[100.3848,13.6714],[100.3883,13.668],[100.4278,13.6876],[100.4248,13.7322],[100.4184,13.7313],[100.4175,13.7353],[100.4147,13.7357],[100.4133,13.7479],[100.3751,13.7535],[100.3526,13.7522]]]},"properties":{"id":"บางแค","name":"บางแค","name_en":"Bang Khae","province":"กรุงเทพมหานคร","lat":13.71074,"lon":100.42082}},{"type":"Feature","geometry":{"type":"Polygon","coordinates":[[[100.5437,13.8498],[100.5865,13.8589],[100.5882,13.8794],[100.5948,13.8875],[100.5829,13.8907],[100.5876,13.8993],[100.5616,13.9138],[100.5589,13.9145],[100.5437,13.8498]],[[100.5793,13.8872],[100.5789,13.8876],[100.5795,13.8876],[100.5793,13.8872]]]},"properties":{"id":"หลักสี่","name":"หลักสี่","name_en":"Lak Si","province":"กรุงเทพมหานคร","lat":13.88435,"lon":100.58163}},{"type":"Feature","geometry":{"type":"Polygon","coordinates":[[[100.6087,13.8956],[100.6113,13.8925],[100.6093,13.8878],[100.6231,13.883],[100.6403,13.8867],[100.6441,13.8827],[100.6527,13.8829],[100.6531,13.8864],[100.6599,13.8794],[100.6648,13.8811],[100.6812,13.8797],[100.6845,13.8741],[100.6899,13.8796],[100.6921,13.8866],[100.6923,13.898],[100.687,13.9095],[100.6837,13.9117],[100.6875,13.9173],[100.6898,13.931],[100.6409,13.9314],[100.6398,13.9374],[100.6248,13.938],[100.6251,13.9474],[100.6226,13.9502],[100.6268,13.9263],[100.6087,13.8956]]]},"properties":{"id":"สายไหม","name":"สายไหม","name_en":"Sai Mai","province":"กรุงเทพมหานคร","lat":13.92126,"lon":100.65784}},{"type":"Feature","geometry":{"type":"Polygon","coordinates":[[[100.646,13.8473],[100.6502,13.8447],[100.6478,13.8441],[100.6486,13.8339],[100.6573,13.8356],[100.6579,13.8329],[100.6614,13.8334],[100.6601,13.8242],[100.6629,13.8101],[100.6667,13.8051],[100.6687,13.8056],[100.6736,13.7962],[100.6766,13.7867],[100.6738,13.7838],[100.6752,13.7812],[100.7049,13.7977],[100.7005,13.8046],[100.702,13.8089],[100.6977,13.8124],[100.697,13.8203],[100.6879,13.8347],[100.684,13.8478],[100.6709,13.8528],[100.6754,13.8564],[100.6632,13.8561],[100.6612,13.8526],[100.6583,13.8523],[100.6587,13.8478],[100.646,13.8473]]]},"properties":{"id":"คันนายาว","name":"คันนายาว","name_en":"Khan Na Yao","province":"กรุงเทพมหานคร","lat":13.7954,"lon":100.69125}},{"type":"Feature","geometry":{"type":"Polygon","coordinates":[[[100.6591,13.7379],[100.7084,13.7325],[100.7098,13.7565],[100.7066,13.7567],[100.716,13.7715],[100.7167,13.7772],[100.7061,13.7983],[100.6647,13.7754],[100.6688,13.7666],[100.6697,13.7564],[100.679,13.7521],[100.6774,13.749],[100.6664,13.7469],[100.6635,13.7401],[100.6591,13.7379]]]},"properties":{"id":"สะพานสูง","name":"สะพานสูง","name_en":"Saphan Sung","province":"กรุงเทพมหานคร","lat":13.76846,"lon":100.68542}},{"type":"Feature","geometry":{"type":"Polygon","coordinates":[[[100.5884,13.8028],[100.5947,13.7628],[100.6041,13.7512],[100.6153,13.7612],[100.6305,13.7632],[100.6282,13.7757],[100.6306,13.7844],[100.6291,13.7887],[100.6259,13.7881],[100.6237,13.8002],[100.615,13.7997],[100.6129,13.7949],[100.6056,13.7951],[100.5996,13.7961],[100.5964,13.8013],[100.5884,13.8028]]]},"properties":{"id":"วังทองหลาง","name":"วังทองหลาง","name_en":"Wang Thonglang","province":"กรุงเทพมหานคร","lat":13.76782,"lon":100.59827}},{"type":"Feature","geometry":{"type":"Polygon","coordinates":[[[100.6708,13.8534],[100.6838,13.8481],[100.6879,13.8347],[100.697,13.8203],[100.6967,13.8154],[100.7058,13.8211],[100.7154,13.8219],[100.7146,13.8314],[100.7203,13.8315],[100.7203,13.8373],[100.7223,13.8375],[100.7223,13.8275],[100.7297,13.8277],[100.7297,13.8327],[100.7364,13.835],[100.7375,13.8322],[100.7447,13.8335],[100.7493,13.8221],[100.7994,13.8495],[100.7873,13.8799],[100.791,13.882],[100.7959,13.8906],[100.7923,13.8939],[100.7925,13.9316],[100.7527,13.9185],[100.687,13.9163],[100.6837,13.9114],[100.687,13.9095],[100.6923,13.898],[100.6921,13.8866],[100.6899,13.8796],[100.6845,13.8743],[100.6857,13.8689],[100.6832,13.8623],[100.6708,13.8534]]]},"properties":{"id":"คลองสามวา","name":"คลองสามวา","name_en":"Khlong Sam Wa","province":"กรุงเทพมหานคร","lat":13.84761,"lon":100.72828}},{"type":"Feature","geometry":{"type":"Polygon","coordinates":[[[100.5793,13.6692],[100.5964,13.6605],[100.6008,13.6608],[100.6013,13.658],[100.6078,13.6585],[100.6083,13.656],[100.6138,13.6539],[100.6161,13.6535],[100.6182,13.6571],[100.6351,13.6475],[100.6406,13.6539],[100.6503,13.6521],[100.6502,13.6591],[100.6538,13.6689],[100.6457,13.6694],[100.6402,13.6779],[100.6246,13.6784],[100.6228,13.6844],[100.6106,13.6843],[100.6002,13.6799],[100.5888,13.6832],[100.5793,13.6692]]]},"properties":{"id":"บางนา","name":"บางนา","name_en":"Bang Na","province":"กรุงเทพมหานคร","lat":13.67309,"lon":100.60688}},{"type":"Feature","geometry":{"type":"Polygon","coordinates":[[[100.3279,13.8042],[100.3336,13.7839],[100.3301,13.7624],[100.3354,13.7534],[100.3375,13.7361],[100.3594,13.738],[100.3526,13.7522],[100.369,13.7539],[100.4062,13.7494],[100.411,13.8013],[100.3279,13.8042]]]},"properties":{"id":"ทวีวัฒนา","name":"ทวีวัฒนา","name_en":"Thawi Watthana","province":"กรุงเทพมหานคร","lat":13.76651,"lon":100.34561}},{"type":"Feature","geometry":{"type":"Polygon","coordinates":[[[100.4698,13.6612],[100.4757,13.6305],[100.4721,13.6242],[100.4816,13.6151],[100.4774,13.6009],[100.4852,13.6032],[100.4854,13.6063],[100.4955,13.6057],[100.5015,13.6095],[100.5082,13.6033],[100.5089,13.5974],[100.5115,13.5969],[100.5138,13.6026],[100.521,13.6051],[100.5164,13.6127],[100.5142,13.6286],[100.518,13.6349],[100.5153,13.6447],[100.5183,13.6554],[100.5175,13.6613],[100.5086,13.6633],[100.5065,13.6599],[100.504,13.6615],[100.5047,13.659],[100.4996,13.654],[100.4923,13.6582],[100.4914,13.6565],[100.4823,13.6612],[100.4793,13.6603],[100.4799,13.6643],[100.4698,13.6612]]]},"properties":{"id":"ทุ่งครุ","name":"ทุ่งครุ","name_en":"Thung Khru","province":"กรุงเทพมหานคร","lat":13.63044,"lon":100.504}},{"type":"Feature","geometry":{"type":"Polygon","coordinates":[[[100.345,13.6481],[100.3484,13.641],[100.3544,13.64],[100.3554,13.6365],[100.359,13.6375],[100.3596,13.6329],[100.366,13.6336],[100.372,13.6208],[100.3778,13.6209],[100.4465,13.6837],[100.4377,13.6937],[100.3933,13.6692],[100.3883,13.668],[100.3833,13.6717],[100.3609,13.6613],[100.3571,13.6616],[100.3496,13.6552],[100.3468,13.6553],[100.345,13.6481]]]},"properties":{"id":"บางบอน","name":"บางบอน","name_en":"Bang Bon","province":"กรุงเทพมหานคร","lat":13.67151,"lon":100.42189}},{"type":"Feature","geometry":{"type":"Polygon","coordinates":[[[100.4764,13.8712],[100.4795,13.8547],[100.4887,13.8477],[100.4919,13.8372],[100.5021,13.8195],[100.5072,13.8162],[100.5064,13.8193],[100.5094,13.8256],[100.5131,13.8247],[100.5362,13.8462],[100.5437,13.8497],[100.5503,13.8777],[100.4974,13.8952],[100.4907,13.8943],[100.4778,13.8777],[100.4764,13.8712]]]},"properties":{"id":"เมืองนนทบุรี","name":"เมืองนนทบุรี","name_en":"Nonthaburi City Municipality","province":"นนทบุรี","lat":13.8429,"lon":100.49379}},{"type":"Feature","geometry":{"type":"Polygon","coordinates":[[[100.4392,13.7996],[100.4653,13.7967],[100.4687,13.8017],[100.4632,13.8048],[100.4615,13.8025],[100.4578,13.8048],[100.4554,13.8026],[100.4515,13.8049],[100.454,13.8091],[100.4498,13.8059],[100.445,13.8086],[100.4392,13.7996]]]},"properties":{"id":"บางกรวย","name":"บางกรวย","name_en":"Maha Sawat Subdistrict Administrative Organization","province":"นนทบุรี","lat":13.80314,"lon":100.45915}},{"type":"Feature","geometry":{"type":"Polygon","coordinates":[[[100.5139,14.0171],[100.527,14.0074],[100.5351,13.9946],[100.5399,14.0017],[100.5363,14.022],[100.5428,14.0298],[100.5342,14.0323],[100.5244,14.0319],[100.5246,14.0246],[100.5173,14.0252],[100.5139,14.0171]]]},"properties":{"id":"เมืองปทุมธานี","name":"เมืองปทุมธานี","name_en":"Pathum Thani Town Municipality","province":"ปทุมธานี","lat":14.0204,"lon":100.53404}},{"type":"Feature","geometry":{"type":"Polygon","coordinates":[[[100.5837,13.5806],[100.5941,13.5748],[100.5966,13.5768],[100.5996,13.5749],[100.6031,13.571],[100.6023,13.5678],[100.6063,13.5721],[100.6053,13.5755],[100.6125,13.5965],[100.6064,13.6014],[100.6011,13.6016],[100.5948,13.6187],[100.5904,13.6273],[100.5877,13.6277],[100.5854,13.6258],[100.5905,13.613],[100.5875,13.6094],[100.5915,13.6054],[100.5925,13.5975],[100.5837,13.5806]]]},"properties":{"id":"เมืองสมุทรปราการ","name":"เมืองสมุทรปราการ","name_en":"Samut Prakan City Municipality","province":"สมุทรปราการ","lat":13.5981,"lon":100.60118}},{"type":"Feature","geometry":{"type":"Polygon","coordinates":[[[100.4444,13.5537],[100.4543,13.4977],[100.577,13.513],[100.5862,13.5192],[100.5929,13.5319],[100.5945,13.5422],[100.5795,13.5545],[100.5763,13.5645],[100.5791,13.5746],[100.5905,13.5905],[100.5921,13.6036],[100.5858,13.61],[100.5653,13.6114],[100.5513,13.6186],[100.5263,13.5988],[100.524,13.6056],[100.5138,13.6026],[100.5115,13.5969],[100.5089,13.5974],[100.5082,13.6033],[100.5015,13.6095],[100.4955,13.6057],[100.4854,13.6063],[100.4852,13.6032],[100.4818,13.6012],[100.4774,13.6009],[100.4769,13.603],[100.4731,13.5991],[100.4736,13.5939],[100.4697,13.5927],[100.464,13.6058],[100.4576,13.6044],[100.4537,13.606],[100.4466,13.587],[100.4444,13.5537]]]},"properties":{"id":"พระสมุทรเจดีย์","name":"พระสมุทรเจดีย์","name_en":"Phra Samut Chedi","province":"สมุทรปราการ","lat":13.55849,"lon":100.51109}},{"type":"Feature","geometry":{"type":"Polygon","coordinates":[[[100.2564,13.533],[100.2635,13.5284],[100.2778,13.5299],[100.2823,13.5358],[100.2806,13.5425],[100.3008,13.5515],[100.299,13.5562],[100.2926,13.558],[100.2911,13.5562],[100.2886,13.5591],[100.2697,13.5617],[100.2656,13.5535],[100.2622,13.5526],[100.2564,13.533]]]},"properties":{"id":"เมืองสมุทรสาคร","name":"เมืองสมุทรสาคร","name_en":"Samut Sakhon City Municipality","province":"สมุทรสาคร","lat":13.54523,"lon":100.2733}},{"type":"Feature","geometry":{"type":"Polygon","coordinates":[[[100.2948,13.8738],[100.3192,13.8225],[100.3284,13.8255],[100.349,13.8247],[100.3495,13.8175],[100.3536,13.8177],[100.3556,13.8137],[100.3688,13.8206],[100.3717,13.8182],[100.3783,13.8203],[100.399,13.8313],[100.403,13.824],[100.4239,13.8363],[100.4272,13.8343],[100.4337,13.8404],[100.4446,13.8457],[100.4418,13.8473],[100.4436,13.8537],[100.4411,13.8586],[100.4483,13.8645],[100.4468,13.8697],[100.4413,13.872],[100.4334,13.8694],[100.4287,13.863],[100.4237,13.8658],[100.4203,13.8702],[100.4195,13.8773],[100.3972,13.8874],[100.3956,13.8928],[100.3972,13.8949],[100.3937,13.8976],[100.3749,13.9026],[100.3747,13.9113],[100.372,13.912],[100.3739,13.9155],[100.3692,13.914],[100.3679,13.9056],[100.3639,13.9054],[100.3653,13.8848],[100.3685,13.8834],[100.3684,13.8808],[100.3632,13.8797],[100.3565,13.8807],[100.3566,13.8834],[100.347,13.8834],[100.3448,13.883],[100.3461,13.8801],[100.3403,13.882],[100.334,13.8791],[100.3319,13.8845],[100.3244,13.8812],[100.3236,13.8874],[100.3208,13.8864],[100.3229,13.8761],[100.3138,13.8755],[100.3134,13.8786],[100.3066,13.8753],[100.3024,13.8842],[100.2994,13.8833],[100.3018,13.8764],[100.2948,13.8738]]]},"properties":{"id":"บางใหญ่","name":"บางใหญ่","name_en":"Bang Yai","province":"นนทบุรี","lat":13.86458,"lon":100.36251}},{"type":"Feature","geometry":{"type":"Polygon","coordinates":[[[100.3261,13.9284],[100.3301,13.9211],[100.333,13.9234],[100.3365,13.917],[100.3348,13.906],[100.3374,13.9055],[100.3401,13.8945],[100.3474,13.8955],[100.3472,13.892],[100.3422,13.8885],[100.3427,13.8852],[100.3456,13.8873],[100.346,13.8834],[100.3566,13.8834],[100.3565,13.8807],[100.3632,13.8797],[100.3684,13.8808],[100.3685,13.8834],[100.3653,13.8848],[100.3639,13.9054],[100.3679,13.9056],[100.3692,13.914],[100.3739,13.9155],[100.372,13.912],[100.3747,13.9113],[100.3749,13.9026],[100.3934,13.8978],[100.3972,13.8949],[100.3956,13.8928],[100.3969,13.8878],[100.4195,13.8773],[100.4208,13.8692],[100.4272,13.8634],[100.4398,13.872],[100.4459,13.8706],[100.4479,13.8674],[100.4505,13.8683],[100.4483,13.8707],[100.449,13.879],[100.4447,13.8949],[100.4434,13.898],[100.4394,13.8994],[100.444,13.9136],[100.4398,13.9139],[100.4406,13.9167],[100.4376,13.9189],[100.4385,13.9259],[100.4485,13.9393],[100.4474,13.9419],[100.4509,13.9485],[100.4461,13.9526],[100.4481,13.9549],[100.4457,13.9571],[100.4428,13.9548],[100.4144,13.9844],[100.399,13.9834],[100.3648,13.9922],[100.3562,14.0007],[100.3497,13.9966],[100.3554,13.985],[100.3561,13.9747],[100.3551,13.9621],[100.35,13.9539],[100.3562,13.9499],[100.3384,13.9281],[100.3309,13.9335],[100.3261,13.9284]]]},"properties":{"id":"บางบัวทอง","name":"บางบัวทอง","name_en":"Bang Bua Thong","province":"นนทบุรี","lat":13.93154,"lon":100.39174}},{"type":"Feature","geometry":{"type":"Polygon","coordinates":[[[100.2633,14.0044],[100.2656,14.0012],[100.2641,13.997],[100.2727,13.9843],[100.2983,13.9634],[100.2654,13.9206],[100.276,13.913],[100.2948,13.8738],[100.3018,13.8764],[100.2994,13.8833],[100.3024,13.8842],[100.3066,13.8753],[100.3134,13.8786],[100.3138,13.8755],[100.3229,13.8761],[100.3208,13.8864],[100.3236,13.8874],[100.3244,13.8812],[100.3319,13.8845],[100.334,13.8791],[100.3403,13.882],[100.3461,13.8801],[100.3456,13.8873],[100.3427,13.8852],[100.3422,13.8885],[100.3472,13.892],[100.3474,13.8955],[100.3401,13.8945],[100.3374,13.9055],[100.3348,13.906],[100.3365,13.917],[100.333,13.9234],[100.3301,13.9211],[100.3261,13.9284],[100.3309,13.9335],[100.3384,13.9281],[100.3562,13.9499],[100.35,13.9539],[100.3551,13.9621],[100.3561,13.9747],[100.3554,13.985],[100.3497,13.9966],[100.3562,14.0007],[100.337,14.0371],[100.3317,14.0558],[100.3324,14.0668],[100.3407,14.0939],[100.3447,14.1165],[100.3293,14.1209],[100.3306,14.1333],[100.3089,14.1322],[100.3076,14.1396],[100.2892,14.1403],[100.2905,14.1238],[100.282,14.1241],[100.2818,14.127],[100.2796,14.1266],[100.2761,14.0801],[100.2719,14.0724],[100.2721,14.0679],[100.2641,14.0601],[100.2671,14.0452],[100.2645,14.0408],[100.2777,14.0314],[100.2739,14.0253],[100.2702,14.0247],[100.2641,14.0102],[100.2665,14.008],[100.2633,14.0044]]]},"properties":{"id":"ไทรน้อย","name":"ไทรน้อย","name_en":"Sai Noi","province":"นนทบุรี","lat":14.00602,"lon":100.30864}},{"type":"Feature","geometry":{"type":"Polygon","coordinates":[[[100.381,13.9942],[100.3856,13.9902],[100.3851,13.9878],[100.3984,13.9835],[100.4091,13.9853],[100.4168,13.9832],[100.4414,13.9561],[100.4428,13.9548],[100.4457,13.9571],[100.4481,13.9549],[100.4461,13.9526],[100.4509,13.9485],[100.4474,13.9419],[100.4485,13.9393],[100.4387,13.9265],[100.4376,13.9189],[100.4406,13.9167],[100.4398,13.9139],[100.444,13.9136],[100.4394,13.8994],[100.4479,13.8979],[100.4496,13.8891],[100.4588,13.8903],[100.463,13.8933],[100.4764,13.8917],[100.485,13.8857],[100.4907,13.8943],[100.4974,13.8952],[100.5503,13.8777],[100.5676,13.9514],[100.5571,13.9498],[100.5394,13.9558],[100.5377,13.9507],[100.531,13.9449],[100.5084,13.9431],[100.5018,13.9363],[100.4891,13.9424],[100.4862,13.9502],[100.4669,13.9687],[100.4672,13.9729],[100.4623,13.9717],[100.4606,13.9764],[100.4578,13.9773],[100.4566,13.971],[100.4526,13.9679],[100.4348,13.9812],[100.381,13.9942]]]},"properties":{"id":"ปากเกร็ด","name":"ปากเกร็ด","name_en":"Pak Kret","province":"นนทบุรี","lat":13.93616,"lon":100.50508}},{"type":"Feature","geometry":{"type":"Polygon","coordinates":[[[100.5822,14.1287],[100.6014,13.9955],[100.6874,14.015],[100.698,14.0208],[100.7091,14.0208],[100.7091,14.0255],[100.7132,14.0254],[100.7224,14.0311],[100.7316,14.0312],[100.7322,14.0351],[100.7556,14.0448],[100.7552,14.2111],[100.6933,14.1817],[100.6197,14.1431],[100.6199,14.1298],[100.613,14.1308],[100.6063,14.1357],[100.5822,14.1287]]]},"properties":{"id":"คลองหลวง","name":"คลองหลวง","name_en":"Khlong Luang","province":"ปทุมธานี","lat":14.10339,"lon":100.67035}},{"type":"Feature","geometry":{"type":"Polygon","coordinates":[[[100.6014,13.9955],[100.6051,13.9658],[100.6873,13.9834],[100.6972,13.9876],[100.6972,13.9914],[100.7064,13.9949],[100.7151,13.995],[100.7194,13.997],[100.72,13.9997],[100.7556,14.0137],[100.9148,14.0682],[100.9142,14.0996],[100.7552,14.0449],[100.7322,14.0351],[100.7316,14.0312],[100.7224,14.0311],[100.7132,14.0254],[100.7091,14.0255],[100.7091,14.0208],[100.698,14.0208],[100.6874,14.015],[100.6014,13.9955]]]},"properties":{"id":"ธัญบุรี","name":"ธัญบุรี","name_en":"Thanyaburi","province":"ปทุมธานี","lat":14.03264,"lon":100.77223}},{"type":"Feature","geometry":{"type":"Polygon","coordinates":[[[100.7552,14.2111],[100.7558,14.0448],[100.9142,14.0996],[100.914,14.2215],[100.9466,14.2372],[100.9456,14.2496],[100.9509,14.26],[100.9517,14.272],[100.8916,14.2436],[100.8915,14.276],[100.8231,14.2434],[100.8231,14.2456],[100.8212,14.2425],[100.7552,14.2111]]]},"properties":{"id":"หนองเสือ","name":"หนองเสือ","name_en":"Nong Suea","province":"ปทุมธานี","lat":14.16079,"lon":100.8345}},{"type":"Feature","geometry":{"type":"Polygon","coordinates":[[[100.3316,14.0567],[100.3367,14.0377],[100.3452,14.0192],[100.3612,13.9944],[100.3851,13.9878],[100.3856,13.9902],[100.3811,13.9948],[100.4348,13.9812],[100.4526,13.9679],[100.4566,13.971],[100.4578,13.9773],[100.4606,13.9764],[100.4623,13.9717],[100.4734,13.9764],[100.4706,13.9809],[100.4727,13.9846],[100.4671,13.9874],[100.4695,13.999],[100.4602,14.0018],[100.4575,14.0003],[100.4482,14.0049],[100.4499,14.0157],[100.4583,14.0279],[100.4725,14.0202],[100.4797,14.0185],[100.4814,14.0219],[100.4862,14.0191],[100.4956,14.0384],[100.493,14.0406],[100.4967,14.0472],[100.4805,14.0572],[100.4866,14.0645],[100.4705,14.0783],[100.4299,14.0957],[100.4277,14.0922],[100.4255,14.0941],[100.4297,14.1009],[100.426,14.1022],[100.4275,14.1049],[100.4164,14.1134],[100.4058,14.116],[100.3698,14.1163],[100.3535,14.1191],[100.3448,14.1169],[100.3316,14.0567]]]},"properties":{"id":"ลาดหลุมแก้ว","name":"ลาดหลุมแก้ว","name_en":"Lat Lum Kaeo","province":"ปทุมธานี","lat":14.04276,"lon":100.41457}},{"type":"Feature","geometry":{"type":"Polygon","coordinates":[[[100.6051,13.9658],[100.6066,13.9536],[100.6128,13.9552],[100.6246,13.9488],[100.6248,13.938],[100.6398,13.9374],[100.6413,13.9313],[100.6898,13.931],[100.6868,13.9163],[100.7527,13.9185],[100.7925,13.9316],[100.9141,13.9462],[100.9148,14.0682],[100.7556,14.0137],[100.72,13.9997],[100.7194,13.997],[100.7151,13.995],[100.7064,13.9949],[100.6972,13.9914],[100.6972,13.9876],[100.6873,13.9834],[100.6051,13.9658]]]},"properties":{"id":"ลำลูกกา","name":"ลำลูกกา","name_en":"Lam Luk Ka","province":"ปทุมธานี","lat":13.99271,"lon":100.80806}},{"type":"Feature","geometry":{"type":"Polygon","coordinates":[[[100.4164,14.1134],[100.4275,14.1049],[100.426,14.1022],[100.4297,14.1009],[100.4255,14.0941],[100.4277,14.0922],[100.4299,14.0957],[100.4705,14.0783],[100.4866,14.0645],[100.4805,14.0572],[100.5216,14.0319],[100.5342,14.0323],[100.5428,14.0298],[100.5546,14.042],[100.5637,14.038],[100.5775,14.0401],[100.5874,14.0489],[100.5863,14.0705],[100.5894,14.0736],[100.5822,14.1287],[100.5734,14.1224],[100.563,14.1223],[100.5603,14.118],[100.556,14.1201],[100.5522,14.1183],[100.5539,14.1116],[100.5494,14.1104],[100.5457,14.1145],[100.528,14.1214],[100.5215,14.1315],[100.5002,14.1158],[100.4992,14.1082],[100.4968,14.1075],[100.4908,14.1082],[100.4889,14.1127],[100.4517,14.1106],[100.4467,14.1162],[100.4164,14.1134]]]},"properties":{"id":"สามโคก","name":"สามโคก","name_en":"Sam Khok","province":"ปทุมธานี","lat":14.08044,"lon":100.52739}},{"type":"Feature","geometry":{"type":"Polygon","coordinates":[[[100.7697,13.5225],[100.7869,13.5131],[100.783,13.5108],[100.7852,13.5088],[100.7797,13.4908],[100.8483,13.4776],[100.8502,13.4835],[100.86,13.4844],[100.8631,13.4896],[100.8696,13.4882],[100.8725,13.4949],[100.8716,13.5129],[100.8741,13.5206],[100.872,13.5238],[100.8794,13.5481],[100.8863,13.5571],[100.8896,13.558],[100.8901,13.5646],[100.9041,13.5541],[100.9152,13.5718],[100.9133,13.5777],[100.9069,13.5806],[100.9072,13.5921],[100.9186,13.5947],[100.9234,13.5935],[100.9594,13.6323],[100.9639,13.6446],[100.954,13.6471],[100.9526,13.6549],[100.9558,13.6624],[100.8608,13.697],[100.8573,13.6798],[100.8592,13.6704],[100.8543,13.6669],[100.8469,13.6531],[100.8483,13.6472],[100.8523,13.6452],[100.8517,13.6419],[100.8471,13.6422],[100.8448,13.6349],[100.8391,13.6305],[100.8386,13.6242],[100.8361,13.6222],[100.8382,13.6174],[100.8428,13.6151],[100.84,13.6101],[100.8415,13.6012],[100.8354,13.5935],[100.8323,13.5786],[100.8216,13.5739],[100.8226,13.5711],[100.8279,13.5718],[100.8285,13.5701],[100.8241,13.5588],[100.8109,13.5612],[100.8101,13.5589],[100.8027,13.5589],[100.7951,13.5634],[100.7902,13.5485],[100.7872,13.5515],[100.7811,13.5492],[100.7804,13.5515],[100.7743,13.5531],[100.7728,13.5495],[100.7748,13.5402],[100.7775,13.5399],[100.78,13.5275],[100.7785,13.5256],[100.7741,13.5263],[100.7747,13.5211],[100.7697,13.5225]]]},"properties":{"id":"บางบ่อ","name":"บางบ่อ","name_en":"Bang Bo","province":"สมุทรปราการ","lat":13.58713,"lon":100.87007}},{"type":"Feature","geometry":{"type":"Polygon","coordinates":[[[100.6291,13.6288],[100.6635,13.6143],[100.6706,13.6139],[100.6676,13.6046],[100.6726,13.5989],[100.6731,13.5929],[100.6756,13.5918],[100.6731,13.5813],[100.6772,13.5746],[100.6822,13.577],[100.6996,13.5753],[100.7076,13.5447],[100.7006,13.5278],[100.6979,13.5274],[100.6951,13.5211],[100.7022,13.5177],[100.7146,13.5198],[100.7222,13.5157],[100.7228,13.5178],[100.7306,13.5174],[100.7324,13.5194],[100.7376,13.513],[100.747,13.5113],[100.7495,13.5156],[100.7529,13.5117],[100.7646,13.5109],[100.7647,13.5178],[100.7736,13.5181],[100.7738,13.521],[100.7698,13.5228],[100.7747,13.5211],[100.7741,13.5263],[100.7797,13.5263],[100.7775,13.5399],[100.7748,13.5402],[100.7731,13.5479],[100.7743,13.5531],[100.763,13.556],[100.7623,13.559],[100.7702,13.5887],[100.7748,13.5963],[100.7794,13.595],[100.7798,13.6],[100.7823,13.6021],[100.7821,13.6148],[100.7768,13.6151],[100.7807,13.6232],[100.7843,13.6254],[100.784,13.6276],[100.7809,13.6277],[100.7834,13.6347],[100.7796,13.6353],[100.7837,13.6472],[100.7813,13.6484],[100.7827,13.6544],[100.7839,13.6558],[100.786,13.6539],[100.7891,13.6621],[100.7936,13.6653],[100.789,13.6672],[100.7932,13.6714],[100.792,13.6777],[100.772,13.6734],[100.7632,13.6747],[100.7814,13.7037],[100.7831,13.7167],[100.7667,13.7154],[100.7307,13.7168],[100.7304,13.7185],[100.71,13.7164],[100.7124,13.7013],[100.6983,13.6562],[100.6784,13.6614],[100.6622,13.6714],[100.6599,13.6702],[100.6554,13.6723],[100.6502,13.6591],[100.6503,13.6521],[100.6451,13.6537],[100.6291,13.6288]]]},"properties":{"id":"บางพลี","name":"บางพลี","name_en":"Bang Phli","province":"สมุทรปราการ","lat":13.61474,"lon":100.72256}},{"type":"Feature","geometry":{"type":"Polygon","coordinates":[[[100.5142,13.6286],[100.5164,13.6127],[100.521,13.6051],[100.524,13.6056],[100.5263,13.5988],[100.5503,13.6162],[100.5521,13.6207],[100.5578,13.6231],[100.5687,13.6373],[100.5728,13.6337],[100.5747,13.6349],[100.5872,13.6295],[100.5933,13.6497],[100.5921,13.6637],[100.5793,13.6692],[100.5891,13.6842],[100.5861,13.6942],[100.574,13.7019],[100.5565,13.7061],[100.5517,13.7016],[100.5523,13.6841],[100.5467,13.6717],[100.5352,13.6697],[100.5228,13.6782],[100.5204,13.6756],[100.5211,13.6691],[100.5176,13.6672],[100.5183,13.6554],[100.5153,13.6447],[100.518,13.6349],[100.5142,13.6286]]]},"properties":{"id":"พระประแดง","name":"พระประแดง","name_en":"Phra Pradaeng","province":"สมุทรปราการ","lat":13.65237,"lon":100.55487}},{"type":"Feature","geometry":{"type":"Polygon","coordinates":[[[100.7702,13.5887],[100.763,13.556],[100.7804,13.5515],[100.7811,13.5492],[100.7872,13.5515],[100.7902,13.5485],[100.7951,13.5634],[100.8027,13.5589],[100.8101,13.5589],[100.8109,13.5612],[100.8241,13.5588],[100.8285,13.5701],[100.8279,13.5718],[100.8226,13.5711],[100.8216,13.5739],[100.8323,13.5786],[100.8354,13.5935],[100.8415,13.6012],[100.84,13.6101],[100.8428,13.6151],[100.8382,13.6174],[100.8361,13.6222],[100.8386,13.6242],[100.8391,13.6305],[100.8448,13.6349],[100.8471,13.6422],[100.8517,13.6419],[100.8523,13.6452],[100.8483,13.6472],[100.8469,13.6531],[100.8543,13.6669],[100.8592,13.6704],[100.8573,13.6798],[100.8593,13.6894],[100.792,13.7155],[100.7831,13.7167],[100.7814,13.7037],[100.7632,13.6747],[100.772,13.6734],[100.792,13.6777],[100.7932,13.6714],[100.789,13.6672],[100.7936,13.6653],[100.7891,13.6621],[100.786,13.6539],[100.7839,13.6558],[100.7827,13.6544],[100.7813,13.6484],[100.7836,13.6467],[100.7796,13.6353],[100.7834,13.6347],[100.7809,13.6277],[100.784,13.6276],[100.7843,13.6254],[100.7807,13.6232],[100.7768,13.6151],[100.7821,13.6148],[100.7823,13.6021],[100.7798,13.6],[100.7794,13.595],[100.7748,13.5963],[100.7702,13.5887]]]},"properties":{"id":"บางเสาธง","name":"บางเสาธง","name_en":"Bang Sao Thong","province":"สมุทรปราการ","lat":13.63275,"lon":100.81268}},{"type":"Feature","geometry":{"type":"Polygon","coordinates":[[[100.1687,13.6767],[100.1835,13.6622],[100.2004,13.6541],[100.2,13.6511],[100.207,13.6513],[100.2071,13.6425],[100.2126,13.6441],[100.2188,13.6384],[100.2318,13.6438],[100.2329,13.6321],[100.2297,13.6272],[100.2249,13.6262],[100.2168,13.6294],[100.2132,13.6262],[100.2147,13.621],[100.2269,13.6211],[100.2279,13.6045],[100.2494,13.6033],[100.2526,13.6078],[100.2654,13.6087],[100.2657,13.6043],[100.2706,13.6049],[100.271,13.6092],[100.2799,13.6126],[100.2818,13.6203],[100.2853,13.62],[100.2859,13.6224],[100.3125,13.6196],[100.3137,13.6237],[100.322,13.6257],[100.3236,13.6306],[100.3361,13.6388],[100.3486,13.6391],[100.3487,13.6437],[100.3461,13.6436],[100.345,13.6481],[100.3468,13.6553],[100.3394,13.655],[100.3413,13.6609],[100.3401,13.6665],[100.3376,13.6774],[100.3336,13.6815],[100.3313,13.6973],[100.3323,13.7125],[100.3365,13.7108],[100.3388,13.7128],[100.3329,13.7211],[100.3249,13.7175],[100.3209,13.7212],[100.3155,13.7206],[100.3156,13.723],[100.3102,13.7216],[100.3102,13.7246],[100.3065,13.7236],[100.3076,13.7189],[100.3007,13.72],[100.3037,13.7151],[100.2979,13.7141],[100.2968,13.718],[100.2901,13.7178],[100.2889,13.7148],[100.2836,13.7134],[100.2865,13.7082],[100.2833,13.7057],[100.2854,13.7028],[100.2833,13.7015],[100.2837,13.6968],[100.286,13.6972],[100.2869,13.6943],[100.2782,13.6929],[100.2769,13.6882],[100.2704,13.6833],[100.2602,13.6847],[100.2576,13.6786],[100.2518,13.6788],[100.2529,13.6767],[100.2474,13.6741],[100.2464,13.676],[100.2436,13.6746],[100.2408,13.6799],[100.2271,13.6727],[100.2279,13.6769],[100.2256,13.6802],[100.2217,13.6851],[100.2197,13.6826],[100.2158,13.6876],[100.2112,13.6859],[100.2091,13.6819],[100.2057,13.6821],[100.2032,13.6783],[100.1916,13.6775],[100.1881,13.6798],[100.1863,13.6851],[100.1839,13.684],[100.1817,13.689],[100.1769,13.688],[100.175,13.6821],[100.1727,13.6825],[100.1687,13.6767]]]},"properties":{"id":"กระทุ่มแบน","name":"กระทุ่มแบน","name_en":"Krathum Baen","province":"สมุทรสาคร","lat":13.65531,"lon":100.26713}},{"type":"Feature","geometry":{"type":"Polygon","coordinates":[[[100.0269,13.5182],[100.0295,13.5079],[100.0426,13.5037],[100.042,13.4986],[100.0465,13.497],[100.0532,13.4858],[100.0718,13.4936],[100.1056,13.5031],[100.1133,13.5004],[100.1111,13.5134],[100.1129,13.5203],[100.1195,13.5247],[100.1303,13.5187],[100.1383,13.5267],[100.1513,13.534],[100.1532,13.5376],[100.1567,13.5365],[100.1633,13.5425],[100.1622,13.5523],[100.1557,13.5566],[100.1522,13.5648],[100.1632,13.5655],[100.1616,13.5765],[100.1859,13.5756],[100.1818,13.5811],[100.174,13.5833],[100.1812,13.5849],[100.1829,13.5873],[100.1842,13.5834],[100.1871,13.5858],[100.189,13.5835],[100.1925,13.5859],[100.198,13.5843],[100.1994,13.5887],[100.2025,13.5894],[100.1999,13.5914],[100.2024,13.5932],[100.2103,13.5833],[100.2117,13.5876],[100.2166,13.5876],[100.2237,13.5951],[100.2279,13.6045],[100.2274,13.62],[100.2253,13.6223],[100.2147,13.621],[100.2132,13.6262],[100.2168,13.6294],[100.2249,13.6262],[100.2297,13.6272],[100.2329,13.6321],[100.233,13.6422],[100.2304,13.6445],[100.2188,13.6384],[100.2126,13.6441],[100.2071,13.6425],[100.207,13.6513],[100.2,13.6511],[100.2004,13.6541],[100.1908,13.6577],[100.1779,13.6666],[100.1697,13.6745],[100.1699,13.6799],[100.1637,13.6767],[100.1565,13.6807],[100.1562,13.6843],[100.1244,13.681],[100.1135,13.6769],[100.121,13.6559],[100.1165,13.6552],[100.1171,13.6525],[100.1014,13.6486],[100.0988,13.6517],[100.0948,13.6504],[100.0932,13.6532],[100.0865,13.6507],[100.0841,13.6573],[100.0686,13.6563],[100.0711,13.649],[100.0714,13.6342],[100.0533,13.6147],[100.0543,13.6124],[100.0462,13.6095],[100.045,13.6056],[100.0391,13.6027],[100.0433,13.5945],[100.0403,13.593],[100.0408,13.585],[100.037,13.5843],[100.0404,13.5743],[100.0383,13.5738],[100.0378,13.5703],[100.0387,13.5609],[100.0447,13.5507],[100.0416,13.5482],[100.0439,13.5414],[100.0291,13.5289],[100.0328,13.523],[100.0269,13.5182]]]},"properties":{"id":"บ้านแพ้ว","name":"บ้านแพ้ว","name_en":"Ban Phaeo","province":"สมุทรสาคร","lat":13.58924,"lon":100.10598}}]}